0 IRIDIUM 150
1 43257U 18030J   24014.90193799 -.00000285  00000-0 -10880-3 0  9998
2 43257  86.3975 300.0318 0001703  74.5242 285.6142 14.34218286303419
0 IRIDIUM 143
1 43258U 18030K   24015.16197827  .00000683  00000-0  23693-3 0  9990
2 43258  86.3983 299.9809 0001714  83.7213 276.4177 14.34220009303414
0 IRIDIUM 161
1 43478U 18047C   24014.78485657  .00000793  00000-0  22961-3 0  9999
2 43478  86.4485  98.1211 0002193  93.7297 266.4155 14.43302248297577
0 IRIDIUM 152
1 43479U 18047D   24014.71608841  .00000109  00000-0  31805-4 0  9994
2 43479  86.3958  98.0090 0001962 100.5666 259.5751 14.34217464295710
0 IRIDIUM 147
1 43480U 18047E   24014.72243197  .00000052  00000-0  11648-4 0  9996
2 43480  86.3960  97.9959 0002244  91.0596 269.0857 14.34216370295715
0 IRIDIUM 110
1 43481U 18047F   24014.93808162  .00000357  00000-0  12033-3 0  9995
2 43481  86.3962  97.9748 0002381  86.8438 273.3030 14.34219379295738
0 IRIDIUM 162
1 43482U 18047G   24014.70928222  .00000775  00000-0  22433-3 0  9990
2 43482  86.4484  98.0549 0002197  94.0008 266.1444 14.43300344297553
0 IRIDIUM 160
1 43569U 18061A   24014.67461279 -.00000150  00000-0 -60539-4 0  9991
2 43569  86.3942  66.4342 0002406 104.7543 255.3920 14.34216651286591
